{
    "links": {
        "self": "http://www.neowsapp.com/rest/v1/neo/3444375?api_key=iIulBulltgU6a56xZRHN4H3l9WmuAYTsLGpBGhQ2"
    },
    "id": "3444375",
    "neo_reference_id": "3444375",
    "name": "(2009 BN2)",
    "designation": "2009 BN2",
    "nasa_jpl_url": "http://ssd.jpl.nasa.gov/sbdb.cgi?sstr=3444375",
    "absolute_magnitude_h": 24.9,
    "estimated_diameter": {
        "kilometers": {
            "estimated_diameter_min": 0.0278326768,
            "estimated_diameter_max": 0.0622357573
        },
        "meters": {
            "estimated_diameter_min": 27.8326768072,
            "estimated_diameter_max": 62.2357573367
        },
        "miles": {
            "estimated_diameter_min": 0.0172944182,
            "estimated_diameter_max": 0.0386714948
        },
        "feet": {
            "estimated_diameter_min": 91.3145593761,
            "estimated_diameter_max": 204.1855621004
        }
    },
    "is_potentially_hazardous_asteroid": false,
    "close_approach_data": [
        {
            "close_approach_date": "2009-01-11",
            "close_approach_date_full": "2009-Jan-11 13:09",
            "epoch_date_close_approach": 1231679340000,
            "relative_velocity": {
                "kilometers_per_second": "9.3598022104",
                "kilometers_per_hour": "33695.2879573597",
                "miles_per_hour": "20936.9415643939"
            },
            "miss_distance": {
                "astronomical": "0.0284969384",
                "lunar": "11.0853090376",
                "kilometers": "4263081.286161208",
                "miles": "2648955.8775043504"
            },
            "orbiting_body": "Earth"
        }
    ],
    "orbital_data": {
        "orbit_id": "7",
        "orbit_determination_date": "2017-04-06 09:01:37",
        "first_observation_date": "2009-01-18",
        "last_observation_date": "2009-02-03",
        "data_arc_in_days": 16,
        "observations_used": 23,
        "orbit_uncertainty": "8",
        "minimum_orbit_intersection": ".00738125",
        "jupiter_tisserand_invariant": "3.925",
        "epoch_osculation": "2454854.5",
        "eccentricity": ".4978603023127196",
        "semi_major_axis": "1.787357412437911",
        "inclination": "4.146544562206732",
        "ascending_node_longitude": "302.0315014136016",
        "orbital_period": "872.801603535767",
        "perihelion_distance": ".8975031107406926",
        "perihelion_argument": "131.2314597362878",
        "aphelion_distance": "2.67721171413513",
        "perihelion_time": "2454813.771736865973",
        "mean_anomaly": "16.79897776178738",
        "mean_motion": ".4124648700708389",
        "equinox": "J2000",
        "orbit_class": {
            "orbit_class_type": "APO",
            "orbit_class_description": "Near-Earth asteroid orbits which cross the Earth’s orbit similar to that of 1862 Apollo",
            "orbit_class_range": "a (semi-major axis) > 1.0 AU; q (perihelion) < 1.017 AU"
        }
    },
    "is_sentry_object": false
}